[{"OBJECT_NAME":"STARLINK-6296","OBJECT_ID":"2023-078G","EPOCH":"2026-03-09T23:11:47.813568","MEAN_MOTION":14.98325501,"ECCENTRICITY":0.00027866,"INCLINATION":69.999,"RA_OF_ASC_NODE":303.9273,"ARG_OF_PERICENTER":270.4408,"MEAN_ANOMALY":89.6431,"EPHEMERIS_TYPE":0,"CLASSIFICATION_TYPE":"U","NORAD_CAT_ID":56773,"ELEMENT_SET_NO":999,"REV_AT_EPOCH":15370,"BSTAR":2.3787996e-5,"MEAN_MOTION_DOT":1.91e-6,"MEAN_MOTION_DDOT":0},{"OBJECT_NAME":"KORSAT-1","OBJECT_ID":"2024-066L","EPOCH":"2026-03-09T23:36:29.126880","MEAN_MOTION":14.99775855,"ECCENTRICITY":0.00103896,"INCLINATION":45.4118,"RA_OF_ASC_NODE":38.4763,"ARG_OF_PERICENTER":214.4294,"MEAN_ANOMALY":145.5913,"EPHEMERIS_TYPE":0,"CLASSIFICATION_TYPE":"U","NORAD_CAT_ID":59452,"ELEMENT_SET_NO":999,"REV_AT_EPOCH":10517,"BSTAR":0.00047970888,"MEAN_MOTION_DOT":5.797e-5,"MEAN_MOTION_DDOT":0}]
